start=new Date('2021-11-24T00:00:00.000Z').valueOf();
sats=[{"EPHEMERIS_TYPE":"0","REV_AT_EPOCH":"9461","OBJECT_ID":"2020-019BC","TLE_LINE1":"1 45410U 20019BC  21327.81031443  .00021718  00000-0  13622-3 0  9991","APOAPSIS":"339.738","BSTAR":"0.00013622000000","MEAN_MOTION_DDOT":"0.0000000000000","CENTER_NAME":"EARTH","REF_FRAME":"TEME","MEAN_ANOMALY":"29.3143","ARG_OF_PERICENTER":"330.7871","SEMIMAJOR_AXIS":"6717.801","PERIAPSIS":"339.594","ECCENTRICITY":"0.00001070","NORAD_CAT_ID":"45410","FILE":"3222563","LAUNCH_DATE":"2020-03-18","MEAN_MOTION":"15.76747113","CLASSIFICATION_TYPE":"U","OBJECT_NAME":"STARLINK-1285","RA_OF_ASC_NODE":"264.3296","RCS_SIZE":"LARGE","DECAY_DATE":null,"INCLINATION":"53.0551","GP_ID":"190360756","OBJECT_TYPE":"PAYLOAD","TIME_SYSTEM":"UTC","SITE":"AFETR","COUNTRY_CODE":"US","MEAN_ELEMENT_THEORY":"SGP4","MEAN_MOTION_DOT":"0.00021718","TLE_LINE2":"2 45410  53.0551 264.3296 0000107 330.7871  29.3143 15.76747113 94618","EPOCH":"2021-11-23T19:26:51.166752","ELEMENT_SET_NO":"999","PERIOD":"91.327"},{"RCS_SIZE":"LARGE","DECAY_DATE":null,"INCLINATION":"53.0549","GP_ID":"190334716","OBJECT_TYPE":"PAYLOAD","MEAN_MOTION_DOT":"0.00001081","TLE_LINE2":"2 45411  53.0549 332.3019 0001656  59.4851 300.6301 15.06392350 93665","MEAN_ELEMENT_THEORY":"SGP4","SITE":"AFETR","COUNTRY_CODE":"US","TIME_SYSTEM":"UTC","PERIOD":"95.593","ELEMENT_SET_NO":"999","EPOCH":"2021-11-23T10:24:07.810272","CENTER_NAME":"EARTH","APOAPSIS":"548.384","MEAN_MOTION_DDOT":"0.0000000000000","BSTAR":"0.00009145600000","OBJECT_ID":"2020-019BD","TLE_LINE1":"1 45411U 20019BD  21327.43342373  .00001081  00000-0  91456-4 0  9990","EPHEMERIS_TYPE":"0","REV_AT_EPOCH":"9366","ARG_OF_PERICENTER":"59.4851","MEAN_ANOMALY":"300.6301","REF_FRAME":"TEME","ECCENTRICITY":"0.00016560","NORAD_CAT_ID":"45411","FILE":"3222418","SEMIMAJOR_AXIS":"6925.372","PERIAPSIS":"546.090","RA_OF_ASC_NODE":"332.3019","OBJECT_NAME":"STARLINK-1293","MEAN_MOTION":"15.06392350","CLASSIFICATION_TYPE":"U","LAUNCH_DATE":"2020-03-18"},{"DECAY_DATE":null,"INCLINATION":"53.0560","RCS_SIZE":"LARGE","GP_ID":"190335466","OBJECT_TYPE":"PAYLOAD","TIME_SYSTEM":"UTC","SITE":"AFETR","COUNTRY_CODE":"US","MEAN_ELEMENT_THEORY":"SGP4","MEAN_MOTION_DOT":"0.00001308","TLE_LINE2":"2 45412  53.0560 332.4634 0001613  59.7099 300.4049 15.06393385 93636","EPOCH":"2021-11-23T09:36:21.755520","ELEMENT_SET_NO":"999","PERIOD":"95.593","EPHEMERIS_TYPE":"0","REV_AT_EPOCH":"9363","OBJECT_ID":"2020-019BE","TLE_LINE1":"1 45412U 20019BE  21327.40025180  .00001308  00000-0  10668-3 0  9999","APOAPSIS":"548.351","MEAN_MOTION_DDOT":"0.0000000000000","BSTAR":"0.00010668000000","CENTER_NAME":"EARTH","REF_FRAME":"TEME","MEAN_ANOMALY":"300.4049","ARG_OF_PERICENTER":"59.7099","SEMIMAJOR_AXIS":"6925.369","PERIAPSIS":"546.117","ECCENTRICITY":"0.00016130","NORAD_CAT_ID":"45412","FILE":"3222418","LAUNCH_DATE":"2020-03-18","MEAN_MOTION":"15.06393385","CLASSIFICATION_TYPE":"U","OBJECT_NAME":"STARLINK-1296","RA_OF_ASC_NODE":"332.4634"},{"DECAY_DATE":null,"RCS_SIZE":"LARGE","INCLINATION":"53.0535","GP_ID":"190314561","OBJECT_TYPE":"PAYLOAD","SITE":"AFETR","COUNTRY_CODE":"US","TIME_SYSTEM":"UTC","TLE_LINE2":"2 45413  53.0535 332.0355 0001645  54.4422 305.6720 15.06399541 93747","MEAN_MOTION_DOT":"-0.00000142","MEAN_ELEMENT_THEORY":"SGP4","EPOCH":"2021-11-23T11:54:22.107744","PERIOD":"95.592","ELEMENT_SET_NO":"999","OBJECT_ID":"2020-019BF","TLE_LINE1":"1 45413U 20019BF  21327.49608921 -.00000142  00000-0  93878-5 0  9991","EPHEMERIS_TYPE":"0","REV_AT_EPOCH":"9374","CENTER_NAME":"EARTH","APOAPSIS":"548.354","BSTAR":"0.00000938780000","MEAN_MOTION_DDOT":"0.0000000000000","MEAN_ANOMALY":"305.6720","REF_FRAME":"TEME","ARG_OF_PERICENTER":"54.4422","SEMIMAJOR_AXIS":"6925.350","PERIAPSIS":"546.076","ECCENTRICITY":"0.00016450","NORAD_CAT_ID":"45413","FILE":"3222387","LAUNCH_DATE":"2020-03-18","RA_OF_ASC_NODE":"332.0355","OBJECT_NAME":"STARLINK-1298","MEAN_MOTION":"15.06399541","CLASSIFICATION_TYPE":"U"},{"ARG_OF_PERICENTER":"58.6886","REF_FRAME":"TEME","MEAN_ANOMALY":"301.4260","APOAPSIS":"548.334","BSTAR":"0.00003112700000","MEAN_MOTION_DDOT":"0.0000000000000","CENTER_NAME":"EARTH","REV_AT_EPOCH":"9362","EPHEMERIS_TYPE":"0","OBJECT_ID":"2020-019BG","TLE_LINE1":"1 45414U 20019BG  21327.41499498  .00000182  00000-0  31127-4 0  9992","MEAN_MOTION":"15.06398788","CLASSIFICATION_TYPE":"U","RA_OF_ASC_NODE":"332.3989","OBJECT_NAME":"STARLINK-1309","LAUNCH_DATE":"2020-03-18","ECCENTRICITY":"0.00016120","NORAD_CAT_ID":"45414","FILE":"3222418","SEMIMAJOR_AXIS":"6925.352","PERIAPSIS":"546.101","GP_ID":"190336466","OBJECT_TYPE":"PAYLOAD","DECAY_DATE":null,"RCS_SIZE":"LARGE","INCLINATION":"53.0542","ELEMENT_SET_NO":"999","PERIOD":"95.592","EPOCH":"2021-11-23T09:57:35.566272","MEAN_ELEMENT_THEORY":"SGP4","MEAN_MOTION_DOT":"0.00000182","TLE_LINE2":"2 45414  53.0542 332.3989 0001612  58.6886 301.4260 15.06398788 93628","TIME_SYSTEM":"UTC","SITE":"AFETR","COUNTRY_CODE":"US"},{"OBJECT_TYPE":"PAYLOAD","GP_ID":"190335216","DECAY_DATE":null,"INCLINATION":"53.0536","RCS_SIZE":"LARGE","PERIOD":"95.592","ELEMENT_SET_NO":"999","EPOCH":"2021-11-23T10:34:44.886720","MEAN_MOTION_DOT":"0.00001352","TLE_LINE2":"2 45415  53.0536 332.2679 0001680  56.2478 303.8670 15.06396089 93660","MEAN_ELEMENT_THEORY":"SGP4","COUNTRY_CODE":"US","SITE":"AFETR","TIME_SYSTEM":"UTC","ARG_OF_PERICENTER":"56.2478","MEAN_ANOMALY":"303.8670","REF_FRAME":"TEME","CENTER_NAME":"EARTH","MEAN_MOTION_DDOT":"0.0000000000000","BSTAR":"0.00010965000000","APOAPSIS":"548.389","TLE_LINE1":"1 45415U 20019BH  21327.44079730  .00001352  00000-0  10965-3 0  9995","OBJECT_ID":"2020-019BH","EPHEMERIS_TYPE":"0","REV_AT_EPOCH":"9366","OBJECT_NAME":"STARLINK-1316","RA_OF_ASC_NODE":"332.2679","CLASSIFICATION_TYPE":"U","MEAN_MOTION":"15.06396089","LAUNCH_DATE":"2020-03-18","NORAD_CAT_ID":"45415","FILE":"3222418","ECCENTRICITY":"0.00016800","PERIAPSIS":"546.062","SEMIMAJOR_AXIS":"6925.361"},{"RCS_SIZE":"LARGE","DECAY_DATE":null,"INCLINATION":"53.0560","OBJECT_TYPE":"PAYLOAD","GP_ID":"190334967","TIME_SYSTEM":"UTC","COUNTRY_CODE":"US","SITE":"AFETR","MEAN_ELEMENT_THEORY":"SGP4","TLE_LINE2":"2 45416  53.0560 332.4303 0001682  54.9014 305.2132 15.06400826 93649","MEAN_MOTION_DOT":"0.00001210","EPOCH":"2021-11-23T09:46:58.965024","ELEMENT_SET_NO":"999","PERIOD":"95.592","REV_AT_EPOCH":"9364","EPHEMERIS_TYPE":"0","TLE_LINE1":"1 45416U 20019BJ  21327.40762691  .00001210  00000-0  10012-3 0  9993","OBJECT_ID":"2020-019BJ","MEAN_MOTION_DDOT":"0.0000000000000","BSTAR":"0.00010012000000","APOAPSIS":"548.376","CENTER_NAME":"EARTH","REF_FRAME":"TEME","MEAN_ANOMALY":"305.2132","ARG_OF_PERICENTER":"54.9014","PERIAPSIS":"546.046","SEMIMAJOR_AXIS":"6925.346","NORAD_CAT_ID":"45416","FILE":"3222418","ECCENTRICITY":"0.00016820","LAUNCH_DATE":"2020-03-18","CLASSIFICATION_TYPE":"U","MEAN_MOTION":"15.06400826","RA_OF_ASC_NODE":"332.4303","OBJECT_NAME":"STARLINK-1318"},{"COUNTRY_CODE":"US","SITE":"AFETR","TIME_SYSTEM":"UTC","TLE_LINE2":"2 45417  53.0555   1.5199 0001335  66.9191 293.1939 15.06401180 93526","MEAN_MOTION_DOT":"-0.00000014","MEAN_ELEMENT_THEORY":"SGP4","EPOCH":"2021-11-23T14:40:13.091232","PERIOD":"95.592","ELEMENT_SET_NO":"999","DECAY_DATE":null,"RCS_SIZE":"LARGE","INCLINATION":"53.0555","OBJECT_TYPE":"PAYLOAD","GP_ID":"190362009","PERIAPSIS":"546.285","SEMIMAJOR_AXIS":"6925.345","FILE":"3222563","NORAD_CAT_ID":"45417","ECCENTRICITY":"0.00013350","LAUNCH_DATE":"2020-03-18","OBJECT_NAME":"STARLINK-1286","RA_OF_ASC_NODE":"1.5199","CLASSIFICATION_TYPE":"U","MEAN_MOTION":"15.06401180","TLE_LINE1":"1 45417U 20019BK  21327.61126263 -.00000014  00000-0  17926-4 0  9990","OBJECT_ID":"2020-019BK","EPHEMERIS_TYPE":"0","REV_AT_EPOCH":"9352","CENTER_NAME":"EARTH","BSTAR":"0.00001792600000","MEAN_MOTION_DDOT":"0.0000000000000","APOAPSIS":"548.134","MEAN_ANOMALY":"293.1939","REF_FRAME":"TEME","ARG_OF_PERICENTER":"66.9191"},{"RCS_SIZE":"LARGE","DECAY_DATE":null,"INCLINATION":"53.0025","OBJECT_TYPE":"PAYLOAD","GP_ID":"190335967","COUNTRY_CODE":"US","SITE":"AFETR","TIME_SYSTEM":"UTC","MEAN_MOTION_DOT":"0.00003013","TLE_LINE2":"2 45418  53.0025  20.1166 0001046  89.8443 270.2663 15.01518706 92979","MEAN_ELEMENT_THEORY":"SGP4","EPOCH":"2021-11-23T12:44:34.153440","PERIOD":"95.903","ELEMENT_SET_NO":"999","TLE_LINE1":"1 45418U 20019BL  21327.53095085  .00003013  00000-0  25083-3 0  9992","OBJECT_ID":"2020-019BL","REV_AT_EPOCH":"9297","EPHEMERIS_TYPE":"0","CENTER_NAME":"EARTH","BSTAR":"0.00025083000000","MEAN_MOTION_DDOT":"0.0000000000000","APOAPSIS":"562.940","MEAN_ANOMALY":"270.2663","REF_FRAME":"TEME","ARG_OF_PERICENTER":"89.8443","PERIAPSIS":"561.489","SEMIMAJOR_AXIS":"6940.350","NORAD_CAT_ID":"45418","FILE":"3222418","ECCENTRICITY":"0.00010460","LAUNCH_DATE":"2020-03-18","RA_OF_ASC_NODE":"20.1166","OBJECT_NAME":"STARLINK-1299","CLASSIFICATION_TYPE":"U","MEAN_MOTION":"15.01518706"},{"REF_FRAME":"TEME","MEAN_ANOMALY":"289.4815","ARG_OF_PERICENTER":"70.6321","REV_AT_EPOCH":"9325","EPHEMERIS_TYPE":"0","TLE_LINE1":"1 45419U 20019BM  21327.47488667  .00001637  00000-0  12877-3 0  9995","OBJECT_ID":"2020-019BM","BSTAR":"0.00012877000000","MEAN_MOTION_DDOT":"0.0000000000000","APOAPSIS":"548.163","CENTER_NAME":"EARTH","LAUNCH_DATE":"2020-03-18","CLASSIFICATION_TYPE":"U","MEAN_MOTION":"15.06398362","RA_OF_ASC_NODE":"2.1196","OBJECT_NAME":"STARLINK-1308","PERIAPSIS":"546.275","SEMIMAJOR_AXIS":"6925.354","NORAD_CAT_ID":"45419","FILE":"3222418","ECCENTRICITY":"0.00013630","OBJECT_TYPE":"PAYLOAD","GP_ID":"190334717","INCLINATION":"53.0547","DECAY_DATE":null,"RCS_SIZE":"LARGE","EPOCH":"2021-11-23T11:23:50.208288","ELEMENT_SET_NO":"999","PERIOD":"95.592","TIME_SYSTEM":"UTC","COUNTRY_CODE":"US","SITE":"AFETR","MEAN_ELEMENT_THEORY":"SGP4","TLE_LINE2":"2 45419  53.0547   2.1196 0001363  70.6321 289.4815 15.06398362 93259","MEAN_MOTION_DOT":"0.00001637"}];
